{
  "type": "FeatureCollection",
  "features": [
    {
      "type": "Feature",
      "properties": {
        "norad_id": 33765,
        "name": "COSMOS 2251 DEB",
        "group": "cosmos-2251-debris",
        "lat": 48.94413158913387,
        "lon": -5.28761100645884,
        "alt_km": 578.6251222470637,
        "timestamp": "2025-12-02T15:49:07.586677+00:00",
        "meta_object_name": "COSMOS 2251 DEB",
        "meta_object_id": "1993-036N",
        "meta_epoch": "2025-12-02T07:50:42.077760",
        "meta_mean_motion": 15.08951674,
        "meta_eccentricity": 0.00680633,
        "meta_inclination": 74.0114,
        "meta_ra_of_asc_node": 194.6177,
        "meta_arg_of_pericenter": 288.551,
        "meta_mean_anomaly": 195.9416,
        "meta_ephemeris_type": 0,
        "meta_classification_type": "U",
        "meta_norad_cat_id": 33765,
        "meta_element_set_no": 999,
        "meta_rev_at_epoch": 89461,
        "meta_bstar": 0.0025068325,
        "meta_mean_motion_dot": 0.00041989,
        "meta_mean_motion_ddot": 0,
        "tle_line1": "1 33765U 93036N   25336.32687590  .00041989  00000+0  25068-2 0  9997",
        "tle_line2": "2 33765  74.0114 194.6177 0068063 288.5510 195.9416 15.08951674894619"
      },
      "geometry": {
        "type": "Point",
        "coordinates": [
          -5.28761100645884,
          48.94413158913387
        ]
      }
    },
    {
      "type": "Feature",
      "properties": {
        "norad_id": 33766,
        "name": "COSMOS 2251 DEB",
        "group": "cosmos-2251-debris",
        "lat": 13.114151330768639,
        "lon": -30.502193839789363,
        "alt_km": 820.4727903165713,
        "timestamp": "2025-12-02T15:49:07.586688+00:00",
        "meta_object_name": "COSMOS 2251 DEB",
        "meta_object_id": "1993-036P",
        "meta_epoch": "2025-12-01T22:18:52.347456",
        "meta_mean_motion": 14.34884049,
        "meta_eccentricity": 0.00635932,
        "meta_inclination": 74.1844,
        "meta_ra_of_asc_node": 154.608,
        "meta_arg_of_pericenter": 1.065,
        "meta_mean_anomaly": 359.0626,
        "meta_ephemeris_type": 0,
        "meta_classification_type": "U",
        "meta_norad_cat_id": 33766,
        "meta_element_set_no": 999,
        "meta_rev_at_epoch": 87590,
        "meta_bstar": 0.00052216993,
        "meta_mean_motion_dot": 1.493e-05,
        "meta_mean_motion_ddot": 0,
        "tle_line1": "1 33766U 93036P   25335.92977254  .00001493  00000+0  52217-3 0  9995",
        "tle_line2": "2 33766  74.1844 154.6080 0063593   1.0650 359.0626 14.34884049875902"
      },
      "geometry": {
        "type": "Point",
        "coordinates": [
          -30.502193839789363,
          13.114151330768639
        ]
      }
    },
    {
      "type": "Feature",
      "properties": {
        "norad_id": 33768,
        "name": "COSMOS 2251 DEB",
        "group": "cosmos-2251-debris",
        "lat": -16.781067935239886,
        "lon": -128.8059041391548,
        "alt_km": 877.9488227536722,
        "timestamp": "2025-12-02T15:49:07.586699+00:00",
        "meta_object_name": "COSMOS 2251 DEB",
        "meta_object_id": "1993-036R",
        "meta_epoch": "2025-12-02T04:14:44.359584",
        "meta_mean_motion": 13.58440474,
        "meta_eccentricity": 0.03657923,
        "meta_inclination": 74.0687,
        "meta_ra_of_asc_node": 236.9131,
        "meta_arg_of_pericenter": 36.9922,
        "meta_mean_anomaly": 111.6339,
        "meta_ephemeris_type": 0,
        "meta_classification_type": "U",
        "meta_norad_cat_id": 33768,
        "meta_element_set_no": 999,
        "meta_rev_at_epoch": 83152,
        "meta_bstar": 0.00041380895,
        "meta_mean_motion_dot": 4.47e-06,
        "meta_mean_motion_ddot": 0,
        "tle_line1": "1 33768U 93036R   25336.17690231  .00000447  00000+0  41381-3 0  9990",
        "tle_line2": "2 33768  74.0687 236.9131 0365792  36.9922 111.6339 13.58440474831522"
      },
      "geometry": {
        "type": "Point",
        "coordinates": [
          -128.8059041391548,
          -16.781067935239886
        ]
      }
    },
    {
      "type": "Feature",
      "properties": {
        "norad_id": 33779,
        "name": "COSMOS 2251 DEB",
        "group": "cosmos-2251-debris",
        "lat": -51.779480471073136,
        "lon": 168.96125946460384,
        "alt_km": 664.93163893971,
        "timestamp": "2025-12-02T15:49:07.586710+00:00",
        "meta_object_name": "COSMOS 2251 DEB",
        "meta_object_id": "1993-036U",
        "meta_epoch": "2025-12-02T00:16:52.481856",
        "meta_mean_motion": 14.70129466,
        "meta_eccentricity": 0.00179381,
        "meta_inclination": 74.0445,
        "meta_ra_of_asc_node": 191.5182,
        "meta_arg_of_pericenter": 227.0656,
        "meta_mean_anomaly": 253.0885,
        "meta_ephemeris_type": 0,
        "meta_classification_type": "U",
        "meta_norad_cat_id": 33779,
        "meta_element_set_no": 999,
        "meta_rev_at_epoch": 88370,
        "meta_bstar": 0.0012782269,
        "meta_mean_motion_dot": 7.684e-05,
        "meta_mean_motion_ddot": 0,
        "tle_line1": "1 33779U 93036U   25336.01171854  .00007684  00000+0  12782-2 0  9992",
        "tle_line2": "2 33779  74.0445 191.5182 0017938 227.0656 253.0885 14.70129466883705"
      },
      "geometry": {
        "type": "Point",
        "coordinates": [
          168.96125946460384,
          -51.779480471073136
        ]
      }
    },
    {
      "type": "Feature",
      "properties": {
        "norad_id": 33782,
        "name": "COSMOS 2251 DEB",
        "group": "cosmos-2251-debris",
        "lat": 63.628721713090655,
        "lon": -28.53491058838375,
        "alt_km": 744.7156409187792,
        "timestamp": "2025-12-02T15:49:07.586721+00:00",
        "meta_object_name": "COSMOS 2251 DEB",
        "meta_object_id": "1993-036X",
        "meta_epoch": "2025-12-02T03:54:24.847776",
        "meta_mean_motion": 14.40396203,
        "meta_eccentricity": 0.00202875,
        "meta_inclination": 74.0326,
        "meta_ra_of_asc_node": 297.1073,
        "meta_arg_of_pericenter": 3.7981,
        "meta_mean_anomaly": 12.1312,
        "meta_ephemeris_type": 0,
        "meta_classification_type": "U",
        "meta_norad_cat_id": 33782,
        "meta_element_set_no": 999,
        "meta_rev_at_epoch": 87974,
        "meta_bstar": 0.00052461044,
        "meta_mean_motion_dot": 1.643e-05,
        "meta_mean_motion_ddot": 0,
        "tle_line1": "1 33782U 93036X   25336.16278759  .00001643  00000+0  52461-3 0  9992",
        "tle_line2": "2 33782  74.0326 297.1073 0020287   3.7981  12.1312 14.40396203879740"
      },
      "geometry": {
        "type": "Point",
        "coordinates": [
          -28.53491058838375,
          63.628721713090655
        ]
      }
    },
    {
      "type": "Feature",
      "properties": {
        "norad_id": 33785,
        "name": "COSMOS 2251 DEB",
        "group": "cosmos-2251-debris",
        "lat": -72.33840161879952,
        "lon": 14.30717259774057,
        "alt_km": 671.5408101893827,
        "timestamp": "2025-12-02T15:49:07.586732+00:00",
        "meta_object_name": "COSMOS 2251 DEB",
        "meta_object_id": "1993-036AA",
        "meta_epoch": "2025-12-01T17:52:08.906592",
        "meta_mean_motion": 14.70058621,
        "meta_eccentricity": 0.00211735,
        "meta_inclination": 73.8671,
        "meta_ra_of_asc_node": 81.4753,
        "meta_arg_of_pericenter": 24.1199,
        "meta_mean_anomaly": 95.2529,
        "meta_ephemeris_type": 0,
        "meta_classification_type": "U",
        "meta_norad_cat_id": 33785,
        "meta_element_set_no": 999,
        "meta_rev_at_epoch": 88345,
        "meta_bstar": 0.001983157,
        "meta_mean_motion_dot": 0.00011939,
        "meta_mean_motion_ddot": 0,
        "tle_line1": "1 33785U 93036AA  25335.74454753  .00011939  00000+0  19832-2 0  9991",
        "tle_line2": "2 33785  73.8671  81.4753 0021173  24.1199  95.2529 14.70058621883452"
      },
      "geometry": {
        "type": "Point",
        "coordinates": [
          14.30717259774057,
          -72.33840161879952
        ]
      }
    },
    {
      "type": "Feature",
      "properties": {
        "norad_id": 33789,
        "name": "COSMOS 2251 DEB",
        "group": "cosmos-2251-debris",
        "lat": 10.115618874798988,
        "lon": -78.407906388536,
        "alt_km": 825.6039557951399,
        "timestamp": "2025-12-02T15:49:07.586743+00:00",
        "meta_object_name": "COSMOS 2251 DEB",
        "meta_object_id": "1993-036AE",
        "meta_epoch": "2025-12-02T01:44:20.155200",
        "meta_mean_motion": 13.88754134,
        "meta_eccentricity": 0.02405214,
        "meta_inclination": 74.0634,
        "meta_ra_of_asc_node": 105.5093,
        "meta_arg_of_pericenter": 223.4798,
        "meta_mean_anomaly": 256.1767,
        "meta_ephemeris_type": 0,
        "meta_classification_type": "U",
        "meta_norad_cat_id": 33789,
        "meta_element_set_no": 999,
        "meta_rev_at_epoch": 84947,
        "meta_bstar": 0.00086283823,
        "meta_mean_motion_dot": 1.287e-05,
        "meta_mean_motion_ddot": 0,
        "tle_line1": "1 33789U 93036AE  25336.07245550  .00001287  00000+0  86284-3 0  9996",
        "tle_line2": "2 33789  74.0634 105.5093 0240521 223.4798 256.1767 13.88754134849478"
      },
      "geometry": {
        "type": "Point",
        "coordinates": [
          -78.407906388536,
          10.115618874798988
        ]
      }
    }
  ]
}